IRIDIUM 136             
1 42962U 17061H   24074.24081661  .00000263  00000+0  86942-4 0  9996
2 42962  86.4027   9.9887 0001952  88.8561 271.2858 14.34217222336593
